{"fetched_at":"2026-07-16T17:46:58.850Z","source":"https://celestrak.org/NORAD/elements/gp.php?NAME=SPACEMOBILE&FORMAT=JSON","constellation":"ast-spacemobile","records":[{"OBJECT_NAME":"SPACEMOBILE-003","OBJECT_ID":"2024-163A","EPOCH":"2026-07-16T04:46:48.810720","CLASSIFICATION_TYPE":"U","MEAN_MOTION":15.20707297,"ECCENTRICITY":0.00047068,"INCLINATION":52.9668,"RA_OF_ASC_NODE":176.0266,"ARG_OF_PERICENTER":196.8318,"MEAN_ANOMALY":163.2521,"EPHEMERIS_TYPE":0,"NORAD_CAT_ID":61045,"ELEMENT_SET_NO":999,"REV_AT_EPOCH":10218,"BSTAR":0.000057482196,"MEAN_MOTION_DOT":0.00000954,"MEAN_MOTION_DDOT":0},{"OBJECT_NAME":"SPACEMOBILE-005","OBJECT_ID":"2024-163B","EPOCH":"2026-07-16T04:22:57.720000","CLASSIFICATION_TYPE":"U","MEAN_MOTION":15.20721538,"ECCENTRICITY":0.00086662,"INCLINATION":52.9763,"RA_OF_ASC_NODE":176.0529,"ARG_OF_PERICENTER":198.6059,"MEAN_ANOMALY":161.462,"EPHEMERIS_TYPE":0,"NORAD_CAT_ID":61046,"ELEMENT_SET_NO":999,"REV_AT_EPOCH":10217,"BSTAR":0.00011173411,"MEAN_MOTION_DOT":0.00002163,"MEAN_MOTION_DDOT":0},{"OBJECT_NAME":"SPACEMOBILE-001","OBJECT_ID":"2024-163C","EPOCH":"2026-07-16T04:20:33.533088","CLASSIFICATION_TYPE":"U","MEAN_MOTION":15.20742034,"ECCENTRICITY":0.00071406,"INCLINATION":52.9729,"RA_OF_ASC_NODE":175.7702,"ARG_OF_PERICENTER":196.5814,"MEAN_ANOMALY":163.4948,"EPHEMERIS_TYPE":0,"NORAD_CAT_ID":61047,"ELEMENT_SET_NO":999,"REV_AT_EPOCH":10217,"BSTAR":0.000018420677,"MEAN_MOTION_DOT":8.3e-7,"MEAN_MOTION_DDOT":0},{"OBJECT_NAME":"SPACEMOBILE-002","OBJECT_ID":"2024-163D","EPOCH":"2026-07-16T05:31:55.802208","CLASSIFICATION_TYPE":"U","MEAN_MOTION":15.20777977,"ECCENTRICITY":0.00058775,"INCLINATION":52.9781,"RA_OF_ASC_NODE":175.5821,"ARG_OF_PERICENTER":195.8282,"MEAN_ANOMALY":164.2529,"EPHEMERIS_TYPE":0,"NORAD_CAT_ID":61048,"ELEMENT_SET_NO":999,"REV_AT_EPOCH":10218,"BSTAR":-0.000020797973,"MEAN_MOTION_DOT":-0.00000792,"MEAN_MOTION_DDOT":0},{"OBJECT_NAME":"SPACEMOBILE-004","OBJECT_ID":"2024-163E","EPOCH":"2026-07-15T14:55:07.061664","CLASSIFICATION_TYPE":"U","MEAN_MOTION":15.20780797,"ECCENTRICITY":0.00065792,"INCLINATION":52.9675,"RA_OF_ASC_NODE":178.1586,"ARG_OF_PERICENTER":225.4338,"MEAN_ANOMALY":134.612,"EPHEMERIS_TYPE":0,"NORAD_CAT_ID":61049,"ELEMENT_SET_NO":999,"REV_AT_EPOCH":10209,"BSTAR":0.00055840965,"MEAN_MOTION_DOT":0.0001216,"MEAN_MOTION_DDOT":0},{"OBJECT_NAME":"SPACEMOBILE-001 DEB","OBJECT_ID":"2024-163F","EPOCH":"2026-07-16T05:17:38.317632","CLASSIFICATION_TYPE":"U","MEAN_MOTION":15.35397157,"ECCENTRICITY":0.00056936,"INCLINATION":52.9936,"RA_OF_ASC_NODE":142.7051,"ARG_OF_PERICENTER":257.2077,"MEAN_ANOMALY":102.8288,"EPHEMERIS_TYPE":0,"NORAD_CAT_ID":62369,"ELEMENT_SET_NO":999,"REV_AT_EPOCH":9096,"BSTAR":0.00012850481,"MEAN_MOTION_DOT":0.00004103,"MEAN_MOTION_DDOT":0},{"OBJECT_NAME":"SPACEMOBILE-002 DEB","OBJECT_ID":"2024-163G","EPOCH":"2026-07-16T04:36:30.925440","CLASSIFICATION_TYPE":"U","MEAN_MOTION":15.43845634,"ECCENTRICITY":0.00046342,"INCLINATION":52.9425,"RA_OF_ASC_NODE":126.8961,"ARG_OF_PERICENTER":290.5468,"MEAN_ANOMALY":69.5039,"EPHEMERIS_TYPE":0,"NORAD_CAT_ID":62370,"ELEMENT_SET_NO":999,"REV_AT_EPOCH":10284,"BSTAR":0.00024502545,"MEAN_MOTION_DOT":0.00010884,"MEAN_MOTION_DDOT":0},{"OBJECT_NAME":"SPACEMOBILE-003 DEB","OBJECT_ID":"2024-163H","EPOCH":"2026-07-16T05:27:25.150752","CLASSIFICATION_TYPE":"U","MEAN_MOTION":15.41590595,"ECCENTRICITY":0.00054684,"INCLINATION":52.9704,"RA_OF_ASC_NODE":133.6498,"ARG_OF_PERICENTER":240.6862,"MEAN_ANOMALY":119.3596,"EPHEMERIS_TYPE":0,"NORAD_CAT_ID":62371,"ELEMENT_SET_NO":999,"REV_AT_EPOCH":9636,"BSTAR":0.00028646866,"MEAN_MOTION_DOT":0.00011845,"MEAN_MOTION_DDOT":0},{"OBJECT_NAME":"SPACEMOBILE-004 DEB","OBJECT_ID":"2024-163J","EPOCH":"2026-07-16T05:54:57.783168","CLASSIFICATION_TYPE":"U","MEAN_MOTION":15.4078059,"ECCENTRICITY":0.00027367,"INCLINATION":52.9844,"RA_OF_ASC_NODE":133.2209,"ARG_OF_PERICENTER":269.2276,"MEAN_ANOMALY":90.8413,"EPHEMERIS_TYPE":0,"NORAD_CAT_ID":62372,"ELEMENT_SET_NO":999,"REV_AT_EPOCH":9943,"BSTAR":0.000203965,"MEAN_MOTION_DOT":0.00008082,"MEAN_MOTION_DDOT":0},{"OBJECT_NAME":"SPACEMOBILE-005 DEB","OBJECT_ID":"2024-163K","EPOCH":"2026-07-16T05:50:22.616448","CLASSIFICATION_TYPE":"U","MEAN_MOTION":15.34669668,"ECCENTRICITY":0.00054442,"INCLINATION":52.9745,"RA_OF_ASC_NODE":147.5008,"ARG_OF_PERICENTER":234.0464,"MEAN_ANOMALY":126.0032,"EPHEMERIS_TYPE":0,"NORAD_CAT_ID":62373,"ELEMENT_SET_NO":999,"REV_AT_EPOCH":10258,"BSTAR":0.00013966455,"MEAN_MOTION_DOT":0.00004384,"MEAN_MOTION_DDOT":0},{"OBJECT_NAME":"SPACEMOBILE-006","OBJECT_ID":"2025-309A","EPOCH":"2026-07-16T06:19:55.744896","CLASSIFICATION_TYPE":"U","MEAN_MOTION":15.18656148,"ECCENTRICITY":0.00099752,"INCLINATION":52.9937,"RA_OF_ASC_NODE":198.439,"ARG_OF_PERICENTER":218.866,"MEAN_ANOMALY":141.1617,"EPHEMERIS_TYPE":0,"NORAD_CAT_ID":67232,"ELEMENT_SET_NO":999,"REV_AT_EPOCH":3101,"BSTAR":0.000056828148,"MEAN_MOTION_DOT":0.00000871,"MEAN_MOTION_DDOT":0},{"OBJECT_NAME":"SPACEMOBILE-008","OBJECT_ID":"2026-139A","EPOCH":"2026-07-16T05:02:13.898976","CLASSIFICATION_TYPE":"U","MEAN_MOTION":15.128027,"ECCENTRICITY":0.00051087,"INCLINATION":52.9949,"RA_OF_ASC_NODE":130.8006,"ARG_OF_PERICENTER":58.8976,"MEAN_ANOMALY":301.2516,"EPHEMERIS_TYPE":0,"NORAD_CAT_ID":69589,"ELEMENT_SET_NO":999,"REV_AT_EPOCH":437,"BSTAR":0.000024227769,"MEAN_MOTION_DOT":0.00000129,"MEAN_MOTION_DDOT":0},{"OBJECT_NAME":"SPACEMOBILE-009","OBJECT_ID":"2026-139B","EPOCH":"2026-07-16T01:54:52.706016","CLASSIFICATION_TYPE":"U","MEAN_MOTION":15.12696048,"ECCENTRICITY":0.00053337,"INCLINATION":52.994,"RA_OF_ASC_NODE":131.4074,"ARG_OF_PERICENTER":54.4529,"MEAN_ANOMALY":305.6959,"EPHEMERIS_TYPE":0,"NORAD_CAT_ID":69590,"ELEMENT_SET_NO":999,"REV_AT_EPOCH":435,"BSTAR":0.000026252336,"MEAN_MOTION_DOT":0.00000164,"MEAN_MOTION_DDOT":0},{"OBJECT_NAME":"SPACEMOBILE-010","OBJECT_ID":"2026-139C","EPOCH":"2026-07-16T05:09:48.280896","CLASSIFICATION_TYPE":"U","MEAN_MOTION":15.12529173,"ECCENTRICITY":0.00052897,"INCLINATION":52.9946,"RA_OF_ASC_NODE":130.8307,"ARG_OF_PERICENTER":46.7134,"MEAN_ANOMALY":313.4298,"EPHEMERIS_TYPE":0,"NORAD_CAT_ID":69591,"ELEMENT_SET_NO":999,"REV_AT_EPOCH":438,"BSTAR":0.000038278867,"MEAN_MOTION_DOT":0.00000374,"MEAN_MOTION_DDOT":0}]}
